STARLINK-36127          
1 66935U 25286L   26068.21430695 -.00002306  00000+0 -65778-4 0  9993
2 66935  53.1615   0.6854 0000961 109.5307 250.5798 15.30197410 15346
2025-313BE              
1 67482U 25313BE  26068.69721505  .00077178  00000+0  26504-2 0  9996
2 67482  97.3989 145.3568 0007208 335.3714  24.7181 15.29801687  7972
