[{"OBJECT_NAME":"STARLINK-36127","OBJECT_ID":"2025-286L","EPOCH":"2026-03-09T05:08:36.120480","MEAN_MOTION":15.3019741,"ECCENTRICITY":9.617e-5,"INCLINATION":53.1615,"RA_OF_ASC_NODE":0.6854,"ARG_OF_PERICENTER":109.5307,"MEAN_ANOMALY":250.5798,"EPHEMERIS_TYPE":0,"CLASSIFICATION_TYPE":"U","NORAD_CAT_ID":66935,"ELEMENT_SET_NO":999,"REV_AT_EPOCH":1534,"BSTAR":-6.5778469e-5,"MEAN_MOTION_DOT":-2.306e-5,"MEAN_MOTION_DDOT":0},{"OBJECT_NAME":"OBJECT BE","OBJECT_ID":"2025-313BE","EPOCH":"2026-03-09T16:43:59.380320","MEAN_MOTION":15.29801687,"ECCENTRICITY":0.00072083,"INCLINATION":97.3989,"RA_OF_ASC_NODE":145.3568,"ARG_OF_PERICENTER":335.3714,"MEAN_ANOMALY":24.7181,"EPHEMERIS_TYPE":0,"CLASSIFICATION_TYPE":"U","NORAD_CAT_ID":67482,"ELEMENT_SET_NO":999,"REV_AT_EPOCH":797,"BSTAR":0.0026504328,"MEAN_MOTION_DOT":0.00077178,"MEAN_MOTION_DDOT":0}]
